[{"OBJECT_NAME":"STARLINK-2501","OBJECT_ID":"2021-036BG","EPOCH":"2026-03-10T00:00:02.999808","MEAN_MOTION":15.29218033,"ECCENTRICITY":0.00014517,"INCLINATION":53.1521,"RA_OF_ASC_NODE":99.2979,"ARG_OF_PERICENTER":95.6918,"MEAN_ANOMALY":344.596,"EPHEMERIS_TYPE":0,"CLASSIFICATION_TYPE":"U","NORAD_CAT_ID":48330,"ELEMENT_SET_NO":999,"REV_AT_EPOCH":579,"BSTAR":0.0042586451,"MEAN_MOTION_DOT":0.00124074,"MEAN_MOTION_DDOT":0},{"OBJECT_NAME":"KUIPER-00180","OBJECT_ID":"2026-030E","EPOCH":"2026-03-09T22:29:40.634304","MEAN_MOTION":15.31865817,"ECCENTRICITY":0.00157227,"INCLINATION":51.8823,"RA_OF_ASC_NODE":218.464,"ARG_OF_PERICENTER":75.5448,"MEAN_ANOMALY":284.728,"EPHEMERIS_TYPE":0,"CLASSIFICATION_TYPE":"U","NORAD_CAT_ID":67768,"ELEMENT_SET_NO":999,"REV_AT_EPOCH":512,"BSTAR":0.011360708,"MEAN_MOTION_DOT":0.00373574,"MEAN_MOTION_DDOT":0}]
